{
  "type": "FeatureCollection",
  "generator": "overpass-turbo",
  "copyright": "The data included in this document is from www.openstreetmap.org. The data is made available under ODbL.",
  "timestamp": "2024-11-22T12:48:56Z",
  "features": [
    {
      "type": "Feature",
      "properties": {
        "@id": "node/21522430",
        "name": "Banteer",
        "network": "InterCity",
        "network:wikidata": "Q6044834",
        "operator": "Iarnród Éireann",
        "operator:en": "Irish Rail",
        "operator:ga": "Iarnród Éireann",
        "operator:wikidata": "Q73043",
        "phone": "+353-29-56004",
        "public_transport": "station",
        "railway": "station",
        "railway:ref": "BTEER",
        "train": "yes",
        "website": "https://www.irishrail.ie/travel-information/banteer",
        "wheelchair": "limited",
        "wikidata": "Q3968971",
        "wikipedia": "en:Banteer railway station"
      },
      "geometry": {
        "type": "Point",
        "coordinates": [
          -8.8990867,
          52.1289412
        ]
      },
      "id": "node/21522430"
    },
    {
      "type": "Feature",
      "properties": {
        "@id": "node/21522841",
        "addr:county": "Cork",
        "name": "Millstreet",
        "name:en": "Millstreet",
        "name:ga": "Sráid an Mhuilinn",
        "name:ru": "Милстрит",
        "network": "InterCity",
        "network:wikidata": "Q6044834",
        "operator": "Iarnród Éireann",
        "operator:en": "Irish Rail",
        "operator:ga": "Iarnród Éireann",
        "operator:wikidata": "Q73043",
        "phone": "003532970096",
        "public_transport": "station",
        "railway": "station",
        "railway:ref": "MLSRT",
        "train": "yes",
        "website": "https://www.irishrail.ie/travel-information/millstreet",
        "wikidata": "Q6860056",
        "wikipedia": "en:Millstreet railway station"
      },
      "geometry": {
        "type": "Point",
        "coordinates": [
          -9.070116,
          52.077397
        ]
      },
      "id": "node/21522841"
    },
    {
      "type": "Feature",
      "properties": {
        "@id": "node/126217380",
        "addr:city": "Athlone",
        "addr:street": "Southern Station Road",
        "name": "Athlone",
        "name:en": "Athlone",
        "name:ga": "Baile Átha Luain",
        "network": "InterCity",
        "network:wikidata": "Q6044834",
        "operator": "Iarnród Éireann",
        "operator:en": "Irish Rail",
        "operator:ga": "Iarnród Éireann",
        "operator:wikidata": "Q73043",
        "phone": "+353 90 6473300",
        "platforms": "3",
        "public_transport": "station",
        "railway": "station",
        "railway:ref": "ATLNE",
        "start_date": "1859",
        "train": "yes",
        "website": "https://www.irishrail.ie/travel-information/athlone",
        "wheelchair": "yes",
        "wikidata": "Q3968929",
        "wikipedia": "en:Athlone railway station"
      },
      "geometry": {
        "type": "Point",
        "coordinates": [
          -7.9357621,
          53.4269001
        ]
      },
      "id": "node/126217380"
    },
    {
      "type": "Feature",
      "properties": {
        "@id": "node/126229314",
        "addr:city": "Roscommon",
        "name": "Roscommon",
        "name:en": "Roscommon",
        "name:ga": "Ros Comáin",
        "network": "InterCity",
        "network:wikidata": "Q6044834",
        "operator": "Iarnród Éireann",
        "operator:en": "Irish Rail",
        "operator:ga": "Iarnród Éireann",
        "operator:wikidata": "Q73043",
        "public_transport": "station",
        "railway": "station",
        "railway:ref": "RSCMN",
        "train": "yes",
        "wheelchair": "yes",
        "wikidata": "Q3970723",
        "wikipedia": "en:Roscommon railway station"
      },
      "geometry": {
        "type": "Point",
        "coordinates": [
          -8.1962865,
          53.6243607
        ]
      },
      "id": "node/126229314"
    },
    {
      "type": "Feature",
      "properties": {
        "@id": "node/126237800",
        "addr:city": "Castlerea",
        "addr:street": "Saint Patrick Street",
        "name": "Castlerea",
        "name:en": "Castlerea",
        "name:ga": "An Caisleán Riabhach",
        "network": "InterCity",
        "network:wikidata": "Q6044834",
        "operator": "Iarnród Éireann",
        "operator:en": "Irish Rail",
        "operator:ga": "Iarnród Éireann",
        "operator:wikidata": "Q73043",
        "phone": "+353 94 9620031",
        "public_transport": "station",
        "railway": "station",
        "railway:ref": "CSREA",
        "train": "yes",
        "website": "https://www.irishrail.ie/travel-information/castlerea",
        "wheelchair": "limited",
        "wheelchair:description": "Only Pl. 1 (by Station building)",
        "wikidata": "Q3969331",
        "wikipedia": "en:Castlerea railway station"
      },
      "geometry": {
        "type": "Point",
        "coordinates": [
          -8.4857961,
          53.7615651
        ]
      },
      "id": "node/126237800"
    },
    {
      "type": "Feature",
      "properties": {
        "@id": "node/252819378",
        "addr:city": "Kildare",
        "addr:street": "Station Road",
        "name": "Kildare",
        "name:en": "Kildare",
        "name:ga": "Cill Dara",
        "name:ru": "Килдэр",
        "network": "InterCity;Dublin Commuter",
        "operator": "Iarnród Éireann",
        "operator:en": "Irish Rail",
        "operator:ga": "Iarnród Éireann",
        "operator:wikidata": "Q73043",
        "public_transport": "station",
        "railway": "station",
        "railway:ref": "KDARE",
        "train": "yes",
        "website": "https://www.irishrail.ie/travel-information/Kildare",
        "wheelchair": "yes",
        "wikidata": "Q3969864",
        "wikipedia": "en:Kildare railway station"
      },
      "geometry": {
        "type": "Point",
        "coordinates": [
          -6.9080483,
          53.1628057
        ]
      },
      "id": "node/252819378"
    },
    {
      "type": "Feature",
      "properties": {
        "@id": "node/263038001",
        "addr:city": "Ballinasloe",
        "addr:county": "Galway",
        "addr:postcode": "H53 X657",
        "addr:street": "Station Road",
        "name": "Ballinasloe",
        "name:en": "Ballinasloe",
        "name:ga": "Béal Átha na Sluaighe",
        "name:ru": "Баллинасло",
        "nat_ref": "BSG",
        "network": "InterCity",
        "network:wikidata": "Q6044834",
        "operator": "Iarnród Éireann",
        "operator:en": "Irish Rail",
        "operator:ga": "Iarnród Éireann",
        "operator:wikidata": "Q73043",
        "platforms": "2",
        "public_transport": "station",
        "railway": "station",
        "railway:ref": "BSLOE",
        "source": "local_knowledge",
        "start_date": "1851",
        "train": "yes",
        "wheelchair": "yes",
        "wikidata": "Q3968957",
        "wikipedia": "en:Ballinasloe railway station"
      },
      "geometry": {
        "type": "Point",
        "coordinates": [
          -8.2398655,
          53.3364279
        ]
      },
      "id": "node/263038001"
    },
    {
      "type": "Feature",
      "properties": {
        "@id": "node/268486769",
        "addr:city": "Castlebar",
        "addr:street": "Station Road",
        "name": "Castlebar",
        "name:en": "Castlebar",
        "name:ga": "Caisleán an Bharraigh",
        "network": "InterCity",
        "network:wikidata": "Q6044834",
        "opening_hours": "Mo-Sa 06:30-23:00; Su,PH 07:00-22:30",
        "operator": "Iarnród Éireann",
        "operator:en": "Irish Rail",
        "operator:ga": "Iarnród Éireann",
        "operator:wikidata": "Q73043",
        "phone": "+353 94 9021222",
        "public_transport": "station",
        "railway": "station",
        "railway:ref": "CLBAR",
        "train": "yes",
        "website": "https://www.irishrail.ie/en-ie/travel-information/find-a-station?key=Castlebar",
        "wheelchair": "yes",
        "wikidata": "Q2059129",
        "wikipedia": "en:Castlebar railway station"
      },
      "geometry": {
        "type": "Point",
        "coordinates": [
          -9.2881409,
          53.8473852
        ]
      },
      "id": "node/268486769"
    },
    {
      "type": "Feature",
      "properties": {
        "@id": "node/277617459",
        "addr:city": "Wexford",
        "addr:street": "Redmond Place",
        "name": "Wexford O'Hanrahan",
        "network": "InterCity",
        "network:wikidata": "Q6044834",
        "operator": "Iarnród Éireann",
        "operator:en": "Irish Rail",
        "operator:ga": "Iarnród Éireann",
        "operator:wikidata": "Q73043",
        "phone": "+353 53 912 2522",
        "public_transport": "station",
        "railway": "station",
        "railway:ref": "WXFRD",
        "train": "yes",
        "website": "https://www.irishrail.ie/en-ie/Station/wexford-o-hanrahan",
        "wheelchair": "yes",
        "wikidata": "Q3971361",
        "wikipedia": "en:Wexford railway station"
      },
      "geometry": {
        "type": "Point",
        "coordinates": [
          -6.464207,
          52.3432029
        ]
      },
      "id": "node/277617459"
    },
    {
      "type": "Feature",
      "properties": {
        "@id": "node/277617734",
        "addr:city": "Rosslare Harbour",
        "name": "Rosslare Europort",
        "network": "InterCity",
        "network:wikidata": "Q6044834",
        "old_name": "Rosslare Harbour",
        "operator": "Iarnród Éireann",
        "operator:en": "Irish Rail",
        "operator:ga": "Iarnród Éireann",
        "operator:wikidata": "Q73043",
        "phone": "+353 53 912 2522",
        "public_transport": "station",
        "railway": "station",
        "railway:ref": "RLEPT",
        "train": "yes",
        "website": "https://www.irishrail.ie/en-ie/station/rosslare-europort",
        "wheelchair": "yes",
        "wikidata": "Q3970729",
        "wikipedia": "en:Rosslare Europort railway station"
      },
      "geometry": {
        "type": "Point",
        "coordinates": [
          -6.3375376,
          52.2511936
        ]
      },
      "id": "node/277617734"
    },
    {
      "type": "Feature",
      "properties": {
        "@id": "node/280883969",
        "addr:city": "Ennis",
        "addr:county": "Clare",
        "addr:street": "Quin Road",
        "name": "Ennis",
        "name:en": "Ennis",
        "name:ga": "Inis",
        "network": "InterCity",
        "network:wikidata": "Q6044834",
        "operator": "Iarnród Éireann",
        "operator:en": "Irish Rail",
        "operator:ga": "Iarnród Éireann",
        "operator:wikidata": "Q73043",
        "public_transport": "station",
        "railway": "station",
        "railway:ref": "ENNIS",
        "train": "yes",
        "website": "https://www.irishrail.ie/travel-information/ennis",
        "wheelchair": "limited",
        "wheelchair:description": "Only Pl. 1 is accessible.",
        "wikidata": "Q3969565",
        "wikipedia": "en:Ennis railway station"
      },
      "geometry": {
        "type": "Point",
        "coordinates": [
          -8.9753026,
          52.8391561
        ]
      },
      "id": "node/280883969"
    },
    {
      "type": "Feature",
      "properties": {
        "@id": "node/306202271",
        "addr:city": "Enniscorthy",
        "addr:street": "Templeshannon",
        "internet_access": "wlan",
        "internet_access:fee": "no",
        "name": "Enniscorthy",
        "network": "InterCity",
        "network:wikidata": "Q6044834",
        "not:network:wikidata": "Q5155093",
        "operator": "Iarnród Éireann",
        "operator:en": "Irish Rail",
        "operator:ga": "Iarnród Éireann",
        "operator:wikidata": "Q73043",
        "phone": "+353 53 9233488",
        "public_transport": "station",
        "railway": "station",
        "railway:ref": "ECRTY",
        "train": "yes",
        "website": "https://www.irishrail.ie/en-ie/station/enniscorthy",
        "wheelchair": "yes",
        "wikidata": "Q3969570",
        "wikipedia": "en:Enniscorthy railway station"
      },
      "geometry": {
        "type": "Point",
        "coordinates": [
          -6.5662164,
          52.5044351
        ]
      },
      "id": "node/306202271"
    },
    {
      "type": "Feature",
      "properties": {
        "@id": "node/306211966",
        "addr:city": "Rathdrum",
        "name": "Rathdrum",
        "network": "InterCity",
        "network:wikidata": "Q6044834",
        "operator": "Iarnród Éireann",
        "operator:en": "Irish Rail",
        "operator:ga": "Iarnród Éireann",
        "operator:wikidata": "Q73043",
        "phone": "+353 402 32519 (Arklow)",
        "public_transport": "station",
        "railway": "station",
        "railway:ref": "RDRUM",
        "train": "yes",
        "website": "https://www.irishrail.ie/travel-information/rathdrum",
        "wheelchair": "no",
        "wikidata": "Q3970643",
        "wikipedia": "en:Rathdrum railway station"
      },
      "geometry": {
        "type": "Point",
        "coordinates": [
          -6.2261035,
          52.930477
        ]
      },
      "id": "node/306211966"
    },
    {
      "type": "Feature",
      "properties": {
        "@id": "node/306229332",
        "addr:city": "Kilcoole",
        "addr:street": "Sea Road",
        "name": "Kilcoole",
        "name:en": "Kilcoole",
        "name:ga": "Cill Chomhghaill",
        "network": "InterCity",
        "network:wikidata": "Q6044834",
        "operator": "Iarnród Éireann",
        "operator:en": "Irish Rail",
        "operator:ga": "Iarnród Éireann",
        "operator:wikidata": "Q73043",
        "phone": "1850 366 222 or +353 1 8366222",
        "public_transport": "station",
        "railway": "station",
        "railway:ref": "KCOOL",
        "train": "yes",
        "website": "https://www.irishrail.ie/travel-information/kilcoole",
        "wheelchair": "no",
        "wikidata": "Q3969862",
        "wikipedia": "en:Kilcoole railway station"
      },
      "geometry": {
        "type": "Point",
        "coordinates": [
          -6.0410762,
          53.1068619
        ]
      },
      "id": "node/306229332"
    },
    {
      "type": "Feature",
      "properties": {
        "@id": "node/306234311",
        "addr:city": "Wicklow",
        "addr:street": "Station Road",
        "name": "Wicklow",
        "name:en": "Wicklow",
        "name:ga": "Cill Mhantáin",
        "network": "InterCity",
        "network:wikidata": "Q6044834",
        "operator": "Iarnród Éireann",
        "operator:en": "Irish Rail",
        "operator:ga": "Iarnród Éireann",
        "operator:wikidata": "Q73043",
        "phone": "+353 404 67329",
        "public_transport": "station",
        "railway": "station",
        "railway:ref": "WLOW",
        "train": "yes",
        "website": "https://www.irishrail.ie/en-ie/station/wicklow",
        "wheelchair": "yes",
        "wikidata": "Q3971362",
        "wikipedia": "en:Wicklow railway station"
      },
      "geometry": {
        "type": "Point",
        "coordinates": [
          -6.0525889,
          52.9881548
        ]
      },
      "id": "node/306234311"
    },
    {
      "type": "Feature",
      "properties": {
        "@id": "node/306234312",
        "addr:city": "Arklow",
        "addr:street": "Station Road",
        "name": "Arklow",
        "network": "InterCity",
        "network:wikidata": "Q6044834",
        "operator": "Iarnród Éireann",
        "operator:en": "Irish Rail",
        "operator:ga": "Iarnród Éireann",
        "operator:wikidata": "Q73043",
        "phone": "+353 402 32519",
        "public_transport": "station",
        "railway": "station",
        "railway:ref": "ARKLW",
        "train": "yes",
        "website": "https://www.irishrail.ie/en-ie/station/arklow",
        "wheelchair": "limited",
        "wikidata": "Q3968908",
        "wikipedia": "en:Arklow railway station"
      },
      "geometry": {
        "type": "Point",
        "coordinates": [
          -6.1597075,
          52.7939226
        ]
      },
      "id": "node/306234312"
    },
    {
      "type": "Feature",
      "properties": {
        "@id": "node/306234776",
        "addr:city": "Gorey",
        "addr:street": "Railway Road",
        "name": "Gorey",
        "network": "InterCity",
        "network:wikidata": "Q6044834",
        "operator": "Iarnród Éireann",
        "operator:en": "Irish Rail",
        "operator:ga": "Iarnród Éireann",
        "operator:wikidata": "Q73043",
        "phone": "+353 53 9421105",
        "public_transport": "station",
        "railway": "station",
        "railway:ref": "GOREY",
        "train": "yes",
        "website": "https://www.irishrail.ie/en-ie/station/gorey",
        "wheelchair": "limited",
        "wikidata": "Q3969740",
        "wikipedia": "en:Gorey railway station"
      },
      "geometry": {
        "type": "Point",
        "coordinates": [
          -6.2921886,
          52.6712983
        ]
      },
      "id": "node/306234776"
    },
    {
      "type": "Feature",
      "properties": {
        "@id": "node/333385901",
        "addr:city": "Carrick-on-Shannon",
        "name": "Carrick-on-Shannon",
        "network": "InterCity",
        "network:wikidata": "Q6044834",
        "operator": "Iarnród Éireann",
        "operator:en": "Irish Rail",
        "operator:ga": "Iarnród Éireann",
        "operator:wikidata": "Q73043",
        "public_transport": "station",
        "railway": "station",
        "railway:ref": "CKOSH",
        "train": "yes",
        "website": "https://www.irishrail.ie/travel-information/carrickonshannon",
        "wikidata": "Q579503",
        "wikipedia": "en:Carrick-on-Shannon railway station"
      },
      "geometry": {
        "type": "Point",
        "coordinates": [
          -8.10686,
          53.938396
        ]
      },
      "id": "node/333385901"
    },
    {
      "type": "Feature",
      "properties": {
        "@id": "node/354050180",
        "addr:city": "Birdhill",
        "addr:street": "Coosane Road",
        "name": "Birdhill",
        "network": "InterCity",
        "operator": "Irish Rail",
        "phone": "+353 61 379118",
        "public_transport": "station",
        "railway": "station",
        "railway:ref": "BHILL",
        "train": "yes",
        "website": "https://www.irishrail.ie/travel-information/birdhill",
        "wheelchair": "yes",
        "wikidata": "Q3969048",
        "wikipedia": "en:Birdhill railway station"
      },
      "geometry": {
        "type": "Point",
        "coordinates": [
          -8.4422851,
          52.7656558
        ]
      },
      "id": "node/354050180"
    },
    {
      "type": "Feature",
      "properties": {
        "@id": "node/663920250",
        "addr:city": "Boyle",
        "addr:street": "Station Road",
        "name": "Boyle",
        "network": "InterCity",
        "network:wikidata": "Q6044834",
        "operator": "Iarnród Éireann",
        "operator:en": "Irish Rail",
        "operator:ga": "Iarnród Éireann",
        "operator:wikidata": "Q73043",
        "phone": "+353 71 966 2027",
        "public_transport": "station",
        "railway": "station",
        "railway:ref": "BOYLE",
        "train": "yes",
        "website": "https://www.irishrail.ie/travel-information/boyle",
        "wheelchair": "yes",
        "wikidata": "Q3969113",
        "wikipedia": "en:Boyle railway station"
      },
      "geometry": {
        "type": "Point",
        "coordinates": [
          -8.3047064,
          53.9676282
        ]
      },
      "id": "node/663920250"
    },
    {
      "type": "Feature",
      "properties": {
        "@id": "node/667718433",
        "addr:city": "Ballyhaunis",
        "addr:street": "Station Rise",
        "name": "Ballyhaunis",
        "name:en": "Ballyhaunis",
        "name:ga": "Béal Átha hAmhnais",
        "network": "InterCity",
        "network:wikidata": "Q6044834",
        "operator": "Iarnród Éireann",
        "operator:en": "Irish Rail",
        "operator:ga": "Iarnród Éireann",
        "operator:wikidata": "Q73043",
        "phone": "+353 94 9630009",
        "public_transport": "station",
        "railway": "station",
        "railway:ref": "BYHNS",
        "train": "yes",
        "website": "https://www.irishrail.ie/en-ie/travel-information/find-a-station?key=Ballyhaunis",
        "wheelchair": "limited",
        "wheelchair:description": "Only in Pl. 1 (by Station building)",
        "wikidata": "Q3968961",
        "wikipedia": "en:Ballyhaunis railway station"
      },
      "geometry": {
        "type": "Point",
        "coordinates": [
          -8.7585405,
          53.7616691
        ]
      },
      "id": "node/667718433"
    },
    {
      "type": "Feature",
      "properties": {
        "@id": "node/728407301",
        "addr:city": "Collooney",
        "name": "Collooney",
        "network": "InterCity",
        "network:wikidata": "Q6044834",
        "operator": "Iarnród Éireann",
        "operator:en": "Irish Rail",
        "operator:ga": "Iarnród Éireann",
        "operator:wikidata": "Q73043",
        "public_transport": "station",
        "railway": "station",
        "railway:ref": "COLNY",
        "train": "yes",
        "website": "https://www.irishrail.ie/travel-information/collooney",
        "wikidata": "Q3969465",
        "wikipedia": "en:Collooney railway station"
      },
      "geometry": {
        "type": "Point",
        "coordinates": [
          -8.4949511,
          54.1865003
        ]
      },
      "id": "node/728407301"
    },
    {
      "type": "Feature",
      "properties": {
        "@id": "node/728439163",
        "addr:city": "Ballymote",
        "addr:street": "Tubbercurry Road",
        "name": "Ballymote",
        "network": "InterCity",
        "network:wikidata": "Q6044834",
        "operator": "Iarnród Éireann",
        "operator:en": "Irish Rail",
        "operator:ga": "Iarnród Éireann",
        "operator:wikidata": "Q73043",
        "phone": "+353 71 918 3311",
        "public_transport": "station",
        "railway": "station",
        "railway:ref": "BMOTE",
        "train": "yes",
        "website": "https://www.irishrail.ie/travel-information/ballymote",
        "wikidata": "Q3968966",
        "wikipedia": "en:Ballymote railway station"
      },
      "geometry": {
        "type": "Point",
        "coordinates": [
          -8.5207305,
          54.0881801
        ]
      },
      "id": "node/728439163"
    },
    {
      "type": "Feature",
      "properties": {
        "@id": "node/731104792",
        "addr:city": "Dromod",
        "contact:phone": "+353-71-9638203",
        "name": "Dromod",
        "network": "InterCity",
        "network:wikidata": "Q6044834",
        "operator": "Iarnród Éireann",
        "operator:en": "Irish Rail",
        "operator:ga": "Iarnród Éireann",
        "operator:wikidata": "Q73043",
        "public_transport": "station",
        "railway": "station",
        "railway:ref": "DRMOD",
        "train": "yes",
        "wikidata": "Q3969548",
        "wikipedia": "en:Dromod railway station"
      },
      "geometry": {
        "type": "Point",
        "coordinates": [
          -7.9163715,
          53.8590965
        ]
      },
      "id": "node/731104792"
    },
    {
      "type": "Feature",
      "properties": {
        "@id": "node/907116924",
        "name": "Rathmore",
        "network": "InterCity",
        "network:wikidata": "Q6044834",
        "operator": "Iarnród Éireann",
        "operator:en": "Irish Rail",
        "operator:ga": "Iarnród Éireann",
        "operator:wikidata": "Q73043",
        "phone": "+353-64-7758006",
        "public_transport": "station",
        "railway": "station",
        "railway:ref": "RMORE",
        "train": "yes",
        "website": "https://www.irishrail.ie/travel-information/rathmore",
        "wheelchair": "limited",
        "wikidata": "Q3970647",
        "wikipedia": "en:Rathmore railway station"
      },
      "geometry": {
        "type": "Point",
        "coordinates": [
          -9.2179688,
          52.0852498
        ]
      },
      "id": "node/907116924"
    },
    {
      "type": "Feature",
      "properties": {
        "@id": "node/1317135921",
        "addr:city": "Westport",
        "addr:street": "Altamont Street",
        "internet_access": "wlan",
        "internet_access:fee": "no",
        "name": "Westport",
        "name:en": "Westport",
        "name:ga": "Cathair na Mart",
        "network": "InterCity",
        "network:wikidata": "Q6044834",
        "operator": "Iarnród Éireann",
        "operator:en": "Irish Rail",
        "operator:ga": "Iarnród Éireann",
        "operator:wikidata": "Q73043",
        "phone": "+353 98 25 253",
        "public_transport": "station",
        "railway": "station",
        "railway:ref": "WPORT",
        "train": "yes",
        "website": "https://www.irishrail.ie/en-ie/travel-information/find-a-station?key=Westport",
        "wheelchair": "limited",
        "wheelchair:description": "Only Pl. 1 (by station building)",
        "wikidata": "Q3971356",
        "wikipedia": "en:Westport railway station (Ireland)"
      },
      "geometry": {
        "type": "Point",
        "coordinates": [
          -9.5100554,
          53.7961425
        ]
      },
      "id": "node/1317135921"
    },
    {
      "type": "Feature",
      "properties": {
        "@id": "node/1353952884",
        "addr:city": "Ballina",
        "addr:street": "Station Road",
        "departures_board": "timetable",
        "name": "Ballina",
        "name:en": "Ballina",
        "name:ga": "Béal an Átha",
        "network": "InterCity",
        "network:wikidata": "Q6044834",
        "operator": "Iarnród Éireann",
        "operator:en": "Irish Rail",
        "operator:ga": "Iarnród Éireann",
        "operator:wikidata": "Q73043",
        "public_transport": "station",
        "railway": "station",
        "railway:ref": "BALNA",
        "train": "yes",
        "wheelchair": "yes",
        "wikidata": "Q2060415",
        "wikipedia": "en:Ballina railway station"
      },
      "geometry": {
        "type": "Point",
        "coordinates": [
          -9.1607346,
          54.1089903
        ]
      },
      "id": "node/1353952884"
    },
    {
      "type": "Feature",
      "properties": {
        "@id": "node/1353952886",
        "addr:city": "Foxford",
        "name": "Foxford",
        "name:en": "Foxford",
        "name:ga": "Béal Easa",
        "network": "InterCity",
        "network:wikidata": "Q6044834",
        "operator": "Iarnród Éireann",
        "operator:en": "Irish Rail",
        "operator:ga": "Iarnród Éireann",
        "operator:wikidata": "Q73043",
        "public_transport": "station",
        "railway": "station",
        "railway:ref": "FXFRD",
        "train": "yes",
        "website": "https://www.irishrail.ie/travel-information/foxford",
        "wheelchair": "yes",
        "wikidata": "Q3969652",
        "wikipedia": "en:Foxford railway station"
      },
      "geometry": {
        "type": "Point",
        "coordinates": [
          -9.1364385,
          53.9828647
        ]
      },
      "id": "node/1353952886"
    },
    {
      "type": "Feature",
      "properties": {
        "@id": "node/1415190101",
        "addr:street": "Tralee Road",
        "name": "Farranfore",
        "name:en": "Farranfore",
        "name:ga": "An Fearann Fuar",
        "network": "InterCity",
        "network:wikidata": "Q6044834",
        "operator": "Iarnród Éireann",
        "operator:en": "Irish Rail",
        "operator:ga": "Iarnród Éireann",
        "operator:wikidata": "Q73043",
        "phone": "+353-66-9764101",
        "public_transport": "station",
        "railway": "station",
        "railway:ref": "FFORE",
        "train": "yes",
        "website": "https://www.irishrail.ie/travel-information/farranfore",
        "wheelchair": "limited",
        "wikidata": "Q3969587",
        "wikipedia": "en:Farranfore railway station"
      },
      "geometry": {
        "type": "Point",
        "coordinates": [
          -9.5520783,
          52.1737762
        ]
      },
      "id": "node/1415190101"
    },
    {
      "type": "Feature",
      "properties": {
        "@id": "node/1446941609",
        "addr:city": "Roscrea",
        "addr:street": "Grove Street",
        "name": "Roscrea",
        "network": "InterCity",
        "operator": "Irish Rail",
        "phone": "+353 505 21823",
        "public_transport": "station",
        "railway": "station",
        "railway:ref": "RCREA",
        "train": "yes",
        "website": "https://www.irishrail.ie/travel-information/roscrea",
        "wheelchair": "limited",
        "wikidata": "Q3970722",
        "wikipedia": "en:Roscrea railway station"
      },
      "geometry": {
        "type": "Point",
        "coordinates": [
          -7.7943455,
          52.9607457
        ]
      },
      "id": "node/1446941609"
    },
    {
      "type": "Feature",
      "properties": {
        "@id": "node/1498432272",
        "addr:city": "Ardrahan",
        "name": "Ardrahan",
        "name:en": "Ardrahan",
        "name:ga": "Ard Raithin",
        "network": "InterCity",
        "network:wikidata": "Q6044834",
        "operator": "Iarnród Éireann",
        "operator:en": "Irish Rail",
        "operator:ga": "Iarnród Éireann",
        "operator:wikidata": "Q73043",
        "public_transport": "station",
        "railway": "station",
        "railway:ref": "ARHAN",
        "train": "yes",
        "website": "https://www.irishrail.ie/travel-information/Ardrahan",
        "wheelchair": "yes",
        "wikidata": "Q3968900",
        "wikipedia": "en:Ardrahan railway station"
      },
      "geometry": {
        "type": "Point",
        "coordinates": [
          -8.8146608,
          53.1572548
        ]
      },
      "id": "node/1498432272"
    },
    {
      "type": "Feature",
      "properties": {
        "@id": "node/1524124078",
        "addr:city": "Carrick-on-Suir",
        "name": "Carrick-on-Suir",
        "network": "InterCity",
        "operator": "Irish Rail",
        "phone": "+353 51 640044",
        "public_transport": "station",
        "railway": "station",
        "railway:ref": "CKOSR",
        "train": "yes",
        "website": "https://www.irishrail.ie/travel-information/carrickonsuir",
        "wikidata": "Q3969246",
        "wikipedia": "en:Carrick-on-Suir railway station"
      },
      "geometry": {
        "type": "Point",
        "coordinates": [
          -7.4045607,
          52.3490526
        ]
      },
      "id": "node/1524124078"
    },
    {
      "type": "Feature",
      "properties": {
        "@id": "node/1777118650",
        "addr:city": "Gort",
        "addr:street": "Station Road",
        "name": "Gort",
        "name:en": "Gort",
        "name:ga": "An Gort",
        "network": "InterCity",
        "network:wikidata": "Q6044834",
        "operator": "Iarnród Éireann",
        "operator:en": "Irish Rail",
        "operator:ga": "Iarnród Éireann",
        "operator:wikidata": "Q73043",
        "public_transport": "station",
        "railway": "station",
        "railway:ref": "GORT",
        "train": "yes",
        "wheelchair": "yes",
        "wikidata": "Q3969741",
        "wikipedia": "en:Gort railway station"
      },
      "geometry": {
        "type": "Point",
        "coordinates": [
          -8.8141817,
          53.0671685
        ]
      },
      "id": "node/1777118650"
    },
    {
      "type": "Feature",
      "properties": {
        "@id": "node/1965606288",
        "addr:city": "Woodlawn",
        "addr:county": "Galway",
        "name": "Woodlawn",
        "name:en": "Woodlawn",
        "name:ga": "Móta",
        "network": "InterCity",
        "network:wikidata": "Q6044834",
        "operator": "Iarnród Éireann",
        "operator:en": "Irish Rail",
        "operator:ga": "Iarnród Éireann",
        "operator:wikidata": "Q73043",
        "platforms": "1",
        "public_transport": "station",
        "railway": "station",
        "railway:ref": "WLAWN",
        "start_date": "1858",
        "train": "yes",
        "wikidata": "Q3971364",
        "wikipedia": "en:Woodlawn railway station"
      },
      "geometry": {
        "type": "Point",
        "coordinates": [
          -8.4716679,
          53.3431479
        ]
      },
      "id": "node/1965606288"
    },
    {
      "type": "Feature",
      "properties": {
        "@id": "node/2359046743",
        "addr:city": "Sixmilebridge",
        "addr:county": "Clare",
        "name": "Sixmilebridge",
        "network": "InterCity",
        "operator": "Irish Rail",
        "public_transport": "station",
        "railway": "station",
        "railway:ref": "SXMBR",
        "train": "yes",
        "wikidata": "Q3971009",
        "wikipedia": "en:Sixmilebridge railway station"
      },
      "geometry": {
        "type": "Point",
        "coordinates": [
          -8.7857729,
          52.7380977
        ]
      },
      "id": "node/2359046743"
    },
    {
      "type": "Feature",
      "properties": {
        "@id": "node/2420790215",
        "addr:city": "Cloughjordan",
        "addr:street": "Templemore Road",
        "name": "Cloughjordan",
        "network": "InterCity",
        "operator": "Irish Rail",
        "phone": "+353 1 8366222 or 1850 366 222",
        "public_transport": "station",
        "railway": "station",
        "railway:ref": "CJRDN",
        "train": "yes",
        "website": "https://www.irishrail.ie/travel-information/cloughjordan",
        "wheelchair": "yes",
        "wikidata": "Q3969445",
        "wikipedia": "en:Cloughjordan railway station"
      },
      "geometry": {
        "type": "Point",
        "coordinates": [
          -8.024487,
          52.9364166
        ]
      },
      "id": "node/2420790215"
    },
    {
      "type": "Feature",
      "properties": {
        "@id": "node/2697052587",
        "addr:city": "Cahir",
        "addr:street": "Church Street",
        "name": "Cahir",
        "network": "InterCity",
        "operator": "Irish Rail",
        "public_transport": "station",
        "railway": "station",
        "railway:ref": "CAHIR",
        "train": "yes",
        "website": "https://www.irishrail.ie/travel-information/cahir",
        "wheelchair": "limited",
        "wikidata": "Q3969154",
        "wikipedia": "en:Cahir railway station"
      },
      "geometry": {
        "type": "Point",
        "coordinates": [
          -7.922583,
          52.3779467
        ]
      },
      "id": "node/2697052587"
    },
    {
      "type": "Feature",
      "properties": {
        "@id": "node/2829159704",
        "addr:city": "Craughwell",
        "name": "Craughwell",
        "name:en": "Craughwell",
        "name:ga": "Creachmhaoil",
        "network": "InterCity",
        "network:wikidata": "Q6044834",
        "operator": "Iarnród Éireann",
        "operator:en": "Irish Rail",
        "operator:ga": "Iarnród Éireann",
        "operator:wikidata": "Q73043",
        "public_transport": "station",
        "railway": "station",
        "railway:ref": "CRGHW",
        "train": "yes",
        "website": "https://www.irishrail.ie/travel-information/craughwell",
        "wheelchair": "yes",
        "wikidata": "Q3969502",
        "wikipedia": "en:Craughwell railway station"
      },
      "geometry": {
        "type": "Point",
        "coordinates": [
          -8.7358299,
          53.2251309
        ]
      },
      "id": "node/2829159704"
    },
    {
      "type": "Feature",
      "properties": {
        "@id": "node/3010372440",
        "addr:city": "Castleconnell",
        "name": "Castleconnell",
        "network": "InterCity",
        "operator": "Irish Rail",
        "phone": "+353 1 8366222 or 1850 366222",
        "public_transport": "station",
        "railway": "station",
        "railway:ref": "CCONL",
        "train": "yes",
        "website": "https://www.irishrail.ie/travel-information/castleconnell",
        "wheelchair": "limited",
        "wikidata": "Q3969335",
        "wikipedia": "en:Castleconnell railway station"
      },
      "geometry": {
        "type": "Point",
        "coordinates": [
          -8.4979284,
          52.7130568
        ]
      },
      "id": "node/3010372440"
    },
    {
      "type": "Feature",
      "properties": {
        "@id": "node/3051527215",
        "addr:city": "Rosslare",
        "name": "Rosslare Strand",
        "name:ga": "Stáisiún Thrá Ros Láir",
        "network": "InterCity",
        "network:wikidata": "Q6044834",
        "operator": "Iarnród Éireann",
        "operator:en": "Irish Rail",
        "operator:ga": "Iarnród Éireann",
        "operator:wikidata": "Q73043",
        "phone": "+353 53 913 2262",
        "public_transport": "station",
        "railway": "station",
        "railway:ref": "RLSTD",
        "ref": "58",
        "toilets:wheelchair": "no",
        "train": "yes",
        "website": "https://www.irishrail.ie/en-ie/train-timetables/live-departure-train-times?key=Rosslare+Strand",
        "wheelchair": "limited",
        "wheelchair:description": "The trainstation is unmanned. Only platform 1 is in use. Toilets and waiting room are locked. Nearest public toilets are on the beach next to Watersports Centre.",
        "wikidata": "Q3970730",
        "wikipedia": "en:Rosslare Strand railway station"
      },
      "geometry": {
        "type": "Point",
        "coordinates": [
          -6.3915222,
          52.2718383
        ]
      },
      "id": "node/3051527215"
    },
    {
      "type": "Feature",
      "properties": {
        "@id": "node/3106031146",
        "addr:city": "Charleville",
        "addr:street": "Railway Road",
        "name": "Charleville",
        "name:en": "Charleville",
        "name:ga": "An Ráth",
        "network": "InterCity",
        "operator": "Irish Rail",
        "platforms": "3",
        "public_transport": "station",
        "railway": "station",
        "railway:ref": "CVILL",
        "start_date": "1849-19-03",
        "train": "yes",
        "wikidata": "Q3969394",
        "wikipedia": "en:Charleville railway station"
      },
      "geometry": {
        "type": "Point",
        "coordinates": [
          -8.6535787,
          52.3472276
        ]
      },
      "id": "node/3106031146"
    },
    {
      "type": "Feature",
      "properties": {
        "@id": "node/3106107177",
        "addr:city": "Ballybrophy",
        "addr:street": "Ballybrophy Station Road",
        "name": "Ballybrophy",
        "name:en": "Ballybrophy",
        "name:ga": "Baile Uí Bhróithe",
        "network": "InterCity",
        "operator": "Irish Rail",
        "platforms": "4",
        "public_transport": "station",
        "railway": "station",
        "railway:ref": "BBRHY",
        "start_date": "1847",
        "train": "yes",
        "wheelchair": "yes",
        "wikidata": "Q3968958",
        "wikipedia": "en:Ballybrophy railway station"
      },
      "geometry": {
        "type": "Point",
        "coordinates": [
          -7.6025345,
          52.9001559
        ]
      },
      "id": "node/3106107177"
    },
    {
      "type": "Feature",
      "properties": {
        "@id": "node/3106107180",
        "addr:city": "Mallow",
        "addr:county": "Cork",
        "addr:street": "New Road",
        "name": "Mallow",
        "name:en": "Mallow",
        "name:ga": "Mala",
        "network": "InterCity;Cork Suburban",
        "operator": "Irish Rail",
        "platforms": "3",
        "public_transport": "station",
        "railway": "station",
        "railway:ref": "MLLOW",
        "start_date": "1849-17-03",
        "train": "yes",
        "wheelchair": "yes",
        "wikidata": "Q3970020",
        "wikipedia": "en:Mallow railway station"
      },
      "geometry": {
        "type": "Point",
        "coordinates": [
          -8.6551101,
          52.138912
        ]
      },
      "id": "node/3106107180"
    },
    {
      "type": "Feature",
      "properties": {
        "@id": "node/3106107185",
        "addr:city": "Templemore",
        "name": "Templemore",
        "name:en": "Templemore",
        "name:ga": "An Teampall Mór",
        "network": "InterCity",
        "operator": "Irish Rail",
        "platforms": "2",
        "public_transport": "station",
        "railway": "station",
        "railway:ref": "TPMOR",
        "start_date": "1846",
        "train": "yes",
        "wikidata": "Q928449",
        "wikipedia": "en:Templemore railway station"
      },
      "geometry": {
        "type": "Point",
        "coordinates": [
          -7.8224599,
          52.7879147
        ]
      },
      "id": "node/3106107185"
    },
    {
      "type": "Feature",
      "properties": {
        "@id": "node/3307721254",
        "addr:county": "Kerry",
        "addr:street": "Fairhill",
        "changing_table": "yes",
        "name": "Killarney",
        "name:en": "Killarney",
        "name:ga": "Stáisiún Chill Airne",
        "network": "InterCity",
        "network:wikidata": "Q6044834",
        "operator": "Iarnród Éireann",
        "operator:en": "Irish Rail",
        "operator:ga": "Iarnród Éireann",
        "operator:wikidata": "Q73043",
        "phone": "+353-64-6631067",
        "public_transport": "station",
        "railway": "station",
        "railway:ref": "KLRNY",
        "toilets": "yes",
        "toilets:wheelchair": "yes",
        "train": "yes",
        "website": "https://www.irishrail.ie/travel-information/killarney",
        "wheelchair": "yes",
        "wikidata": "Q3969865",
        "wikipedia": "en:Killarney railway station"
      },
      "geometry": {
        "type": "Point",
        "coordinates": [
          -9.5023187,
          52.0591548
        ]
      },
      "id": "node/3307721254"
    },
    {
      "type": "Feature",
      "properties": {
        "@id": "node/3627845010",
        "addr:city": "Port Laoise",
        "addr:street": "Railway Street",
        "name": "Portlaoise",
        "name:en": "Portlaoise",
        "name:ga": "Port Laoise",
        "network": "InterCity",
        "network:wikidata": "Q6044834",
        "old_name": "Maryborough",
        "operator": "Iarnród Éireann",
        "operator:en": "Irish Rail",
        "operator:ga": "Iarnród Éireann",
        "operator:wikidata": "Q73043",
        "platforms": "2",
        "public_transport": "station",
        "railway": "station",
        "railway:ref": "PTLSE",
        "start_date": "1847-06-26",
        "train": "yes",
        "wikidata": "Q3970567",
        "wikipedia": "en:Port Laoise railway station"
      },
      "geometry": {
        "type": "Point",
        "coordinates": [
          -7.3013145,
          53.0370118
        ]
      },
      "id": "node/3627845010"
    },
    {
      "type": "Feature",
      "properties": {
        "@id": "node/3627881984",
        "addr:city": "Attymon",
        "addr:county": "Galway",
        "name": "Attymon",
        "name:en": "Attymon",
        "name:ga": "Áth Tíomáin",
        "network": "InterCity",
        "network:wikidata": "Q6044834",
        "operator": "Iarnród Éireann",
        "operator:en": "Irish Rail",
        "operator:ga": "Iarnród Éireann",
        "operator:wikidata": "Q73043",
        "platforms": "1",
        "public_transport": "station",
        "railway": "station",
        "railway:ref": "ATMON",
        "train": "yes",
        "website": "https://www.irishrail.ie/travel-information/Attymon",
        "wikidata": "Q3968932",
        "wikipedia": "en:Attymon halt"
      },
      "geometry": {
        "type": "Point",
        "coordinates": [
          -8.6062737,
          53.3212772
        ]
      },
      "id": "node/3627881984"
    },
    {
      "type": "Feature",
      "properties": {
        "@id": "node/3634954890",
        "addr:city": "Nenagh",
        "addr:county": "Tipperary",
        "addr:street": "Thurles Road",
        "name": "Nenagh",
        "network": "InterCity",
        "network:wikidata": "Q6044834",
        "operator": "Iarnród Éireann",
        "operator:en": "Irish Rail",
        "operator:ga": "Iarnród Éireann",
        "operator:wikidata": "Q73043",
        "phone": "+353 67 31232",
        "public_transport": "station",
        "railway": "station",
        "railway:ref": "NNAGH",
        "train": "yes",
        "website": "https://www.irishrail.ie/travel-information/nenagh",
        "wheelchair": "yes",
        "wikidata": "Q3970290",
        "wikipedia": "en:Nenagh railway station"
      },
      "geometry": {
        "type": "Point",
        "coordinates": [
          -8.1950513,
          52.8604857
        ]
      },
      "id": "node/3634954890"
    },
    {
      "type": "Feature",
      "properties": {
        "@id": "node/3640069842",
        "addr:city": "Thurles",
        "addr:street": "Butlers Avenue",
        "fax": "+353 504 23194",
        "name": "Thurles",
        "name:en": "Thurles",
        "name:ga": "Durlas",
        "network": "InterCity",
        "operator": "Irish Rail",
        "phone": "+353 504 21733",
        "platforms": "3",
        "public_transport": "station",
        "railway": "station",
        "railway:ref": "THRLS",
        "start_date": "1848-03-13",
        "toilets": "yes",
        "wheelchair": "yes",
        "wikidata": "Q3971114",
        "wikipedia": "en:Thurles railway station"
      },
      "geometry": {
        "type": "Point",
        "coordinates": [
          -7.8219058,
          52.6766937
        ]
      },
      "id": "node/3640069842"
    },
    {
      "type": "Feature",
      "properties": {
        "@id": "node/3740185419",
        "addr:city": "Longford",
        "addr:street": "Saint Joseph's Road",
        "name": "Longford",
        "network": "InterCity;Dublin Commuter",
        "operator": "Irish Rail",
        "phone": "+353 43 3345208",
        "public_transport": "station",
        "railway": "station",
        "railway:ref": "LFORD",
        "train": "yes",
        "website": "https://www.irishrail.ie/travel-information/longford",
        "wheelchair": "yes",
        "wikidata": "Q2090385",
        "wikipedia": "en:Longford railway station"
      },
      "geometry": {
        "type": "Point",
        "coordinates": [
          -7.796149,
          53.7242754
        ]
      },
      "id": "node/3740185419"
    },
    {
      "type": "Feature",
      "properties": {
        "@id": "node/3760590275",
        "addr:city": "Tralee",
        "addr:street": "John Joe Sheehy Road",
        "name": "Tralee Casement",
        "network": "InterCity",
        "network:wikidata": "Q6044834",
        "operator": "Iarnród Éireann",
        "operator:en": "Irish Rail",
        "operator:ga": "Iarnród Éireann",
        "operator:wikidata": "Q73043",
        "phone": "+353-66-7123522",
        "platforms": "1",
        "public_transport": "station",
        "railway": "station",
        "railway:ref": "TRLEE",
        "train": "yes",
        "was:name": "Tralee South",
        "website": "https://www.irishrail.ie/travel-information/tralee-casement",
        "wheelchair": "yes",
        "wikidata": "Q546313",
        "wikipedia": "en:Tralee railway station"
      },
      "geometry": {
        "type": "Point",
        "coordinates": [
          -9.6991554,
          52.2710228
        ]
      },
      "id": "node/3760590275"
    },
    {
      "type": "Feature",
      "properties": {
        "@id": "node/5154958536",
        "addr:country": "IE",
        "name": "Claremorris",
        "name:en": "Claremorris",
        "name:ga": "Clár Chlainne Mhuiris",
        "network": "InterCity",
        "network:wikidata": "Q6044834",
        "operator": "Iarnród Éireann",
        "operator:en": "Irish Rail",
        "operator:ga": "Iarnród Éireann",
        "operator:wikidata": "Q73043",
        "public_transport": "station",
        "railway": "station",
        "railway:ref": "CLMRS",
        "start_date": "1862-05-19",
        "train": "yes",
        "website": "https://www.irishrail.ie/travel-information/claremorris",
        "wheelchair": "limited",
        "wheelchair:description": "Only Pl.1 (by the station building)",
        "wikidata": "Q3969436",
        "wikipedia": "en:Claremorris railway station"
      },
      "geometry": {
        "type": "Point",
        "coordinates": [
          -9.0022215,
          53.7206837
        ]
      },
      "id": "node/5154958536"
    },
    {
      "type": "Feature",
      "properties": {
        "@id": "node/5355217228",
        "addr:city": "Clonmel",
        "addr:street": "Thomas Street",
        "name": "Clonmel",
        "network": "InterCity",
        "network:wikidata": "Q6044834",
        "operator": "Iarnród Éireann",
        "operator:en": "Irish Rail",
        "operator:ga": "Iarnród Éireann",
        "operator:wikidata": "Q73043",
        "phone": "+353 53 21982",
        "public_transport": "station",
        "railway": "station",
        "railway:ref": "CLMEL",
        "train": "yes",
        "website": "https://www.irishrail.ie/travel-information/clonmel",
        "wheelchair": "limited",
        "wikidata": "Q1124923",
        "wikipedia": "en:Clonmel railway station"
      },
      "geometry": {
        "type": "Point",
        "coordinates": [
          -7.6991241,
          52.3610817
        ]
      },
      "id": "node/5355217228"
    },
    {
      "type": "Feature",
      "properties": {
        "@id": "node/5403839993",
        "addr:city": "Bray",
        "addr:street": "Station Yard",
        "name": "Bray Daly",
        "network": "InterCity;Dublin Commuter;DART",
        "operator": "Irish Rail",
        "phone": "+353 1 828 6305",
        "public_transport": "station",
        "railway": "station",
        "railway:ref": "BRAY",
        "train": "yes",
        "website": "https://www.irishrail.ie/en-ie/station/bray-daly",
        "wheelchair": "yes",
        "wikidata": "Q2924155",
        "wikipedia": "en:Bray Daly railway station"
      },
      "geometry": {
        "type": "Point",
        "coordinates": [
          -6.1005613,
          53.2044148
        ]
      },
      "id": "node/5403839993"
    },
    {
      "type": "Feature",
      "properties": {
        "@id": "node/6740364330",
        "addr:city": "Limerick",
        "addr:street": "Parnell Street",
        "name": "Limerick Colbert",
        "network": "InterCity",
        "network:wikidata": "Q6044834",
        "operator": "Iarnród Éireann",
        "operator:en": "Irish Rail",
        "operator:ga": "Iarnród Éireann",
        "operator:wikidata": "Q73043",
        "phone": "+353 61 315555",
        "public_transport": "station",
        "railway": "station",
        "railway:ref": "LMRCK",
        "train": "yes",
        "website": "https://www.irishrail.ie/travel-information/limerick-colbert",
        "wikidata": "Q3969965",
        "wikipedia": "en:Limerick Colbert railway station"
      },
      "geometry": {
        "type": "Point",
        "coordinates": [
          -8.6246847,
          52.6588782
        ]
      },
      "id": "node/6740364330"
    },
    {
      "type": "Feature",
      "properties": {
        "@id": "node/6740507736",
        "addr:city": "Limerick Junction",
        "addr:county": "Tipperary",
        "name": "Limerick Junction",
        "name:en": "Limerick Junction",
        "name:ga": "Gabhal Luimnigh",
        "network": "InterCity",
        "operator": "Irish Rail",
        "platforms": "3",
        "public_transport": "station",
        "railway": "station",
        "railway:ref": "LMRKJ",
        "start_date": "1848",
        "train": "yes",
        "wheelchair": "yes",
        "wikidata": "Q2059829",
        "wikipedia": "en:Limerick Junction"
      },
      "geometry": {
        "type": "Point",
        "coordinates": [
          -8.1988652,
          52.5019872
        ]
      },
      "id": "node/6740507736"
    },
    {
      "type": "Feature",
      "properties": {
        "@id": "node/6852246817",
        "addr:city": "Waterford",
        "addr:street": "Sally Park",
        "name": "Waterford Plunkett",
        "network": "InterCity",
        "network:wikidata": "Q6044834",
        "operator": "Iarnród Éireann",
        "operator:en": "Irish Rail",
        "operator:ga": "Iarnród Éireann",
        "operator:wikidata": "Q73043",
        "public_transport": "station",
        "railway": "station",
        "railway:ref": "WFORD",
        "train": "yes",
        "website": "https://www.irishrail.ie/travel-information/waterford-plunkett",
        "wheelchair": "yes",
        "wikidata": "Q3971355",
        "wikipedia": "en:Waterford railway station"
      },
      "geometry": {
        "type": "Point",
        "coordinates": [
          -7.1178049,
          52.2663764
        ]
      },
      "id": "node/6852246817"
    },
    {
      "type": "Feature",
      "properties": {
        "@id": "node/6852298568",
        "addr:city": "Kilkenny",
        "addr:street": "Dublin Road",
        "alt_name": "Kilkenny Train Station",
        "name": "Kilkenny MacDonagh",
        "network": "InterCity",
        "operator": "Irish Rail",
        "phone": "+353 56 7722024",
        "public_transport": "station",
        "railway": "station",
        "railway:ref": "KKNNY",
        "train": "yes",
        "website": "https://www.irishrail.ie/travel-information/kilkenny-macdonagh",
        "wheelchair": "yes",
        "wikidata": "Q2058784",
        "wikipedia": "en:Kilkenny railway station"
      },
      "geometry": {
        "type": "Point",
        "coordinates": [
          -7.2435663,
          52.654458
        ]
      },
      "id": "node/6852298568"
    },
    {
      "type": "Feature",
      "properties": {
        "@id": "node/6852302249",
        "addr:city": "Thomastown",
        "name": "Thomastown",
        "network": "InterCity",
        "operator": "Irish Rail",
        "phone": "+353 56 7724218",
        "public_transport": "station",
        "railway": "station",
        "railway:ref": "THTWN",
        "train": "yes",
        "website": "https://www.irishrail.ie/travel-information/thomastown",
        "wheelchair": "limited",
        "wikidata": "Q3971112",
        "wikipedia": "en:Thomastown railway station"
      },
      "geometry": {
        "type": "Point",
        "coordinates": [
          -7.1488957,
          52.5231654
        ]
      },
      "id": "node/6852302249"
    },
    {
      "type": "Feature",
      "properties": {
        "@id": "node/6852317057",
        "addr:city": "Carlow",
        "addr:street": "Railway Road",
        "name": "Carlow",
        "network": "InterCity",
        "operator": "Irish Rail",
        "public_transport": "station",
        "railway": "station",
        "railway:ref": "CRLOW",
        "train": "yes",
        "wheelchair": "limited",
        "wikidata": "Q3969232",
        "wikipedia": "en:Carlow railway station"
      },
      "geometry": {
        "type": "Point",
        "coordinates": [
          -6.9221056,
          52.8410587
        ]
      },
      "id": "node/6852317057"
    },
    {
      "type": "Feature",
      "properties": {
        "@id": "node/6854406241",
        "addr:city": "Dublin",
        "addr:street": "Saint John's Road West",
        "name": "Dublin Heuston",
        "name:en": "Dublin Heuston",
        "name:ga": "Baile Átha Cliath Heuston",
        "network": "InterCity;Dublin Commuter",
        "note": "There's two reference systems used: a five-letter code and a numerical identifier. I've used the former (HSTON), the latter is 1. Both can be found on the Wikipedia station list - https://en.wikipedia.org/wiki/List_of_railway_stations_in_Ireland",
        "old_name": "Dublin Kingsbridge",
        "operator": "Irish Rail",
        "passenger_information_display": "yes",
        "phone": "+353 1 7032132",
        "platforms": "9",
        "public_transport": "station",
        "railway": "station",
        "railway:ref": "HSTON",
        "short_name": "Heuston",
        "start_date": "1846",
        "train": "yes",
        "website": "https://www.irishrail.ie/travel-information/dublin-heuston",
        "wheelchair": "yes",
        "wikidata": "Q2377845",
        "wikipedia": "en:Dublin Heuston railway station"
      },
      "geometry": {
        "type": "Point",
        "coordinates": [
          -6.2929939,
          53.3464997
        ]
      },
      "id": "node/6854406241"
    },
    {
      "type": "Feature",
      "properties": {
        "@id": "node/6854415949",
        "addr:city": "Galway",
        "addr:street": "Station Road",
        "name": "Galway Ceannt",
        "name:en": "Galway Ceannt",
        "name:ga": "Gaillimh Cheannt",
        "network": "InterCity",
        "network:wikidata": "Q6044834",
        "note": "Note that the name \"Galway Ceannt\" / \"Gaillimh Cheannt\" is never translated as \"Galway Kent\" to avoid confusion with \"Cork Kent\".",
        "operator": "Iarnród Éireann",
        "operator:en": "Irish Rail",
        "operator:ga": "Iarnród Éireann",
        "operator:wikidata": "Q73043",
        "phone": "+ 353 91 537 582",
        "public_transport": "station",
        "railway": "station",
        "railway:ref": "GALWY",
        "train": "yes",
        "website": "https://www.irishrail.ie/travel-information/galway-ceannt",
        "wheelchair": "yes",
        "wikidata": "Q2086351",
        "wikipedia": "en:Galway railway station"
      },
      "geometry": {
        "type": "Point",
        "coordinates": [
          -9.0474882,
          53.2738345
        ]
      },
      "id": "node/6854415949"
    },
    {
      "type": "Feature",
      "properties": {
        "@id": "node/6856262797",
        "addr:city": "Athenry",
        "addr:street": "Station Road",
        "name": "Athenry",
        "name:en": "Athenry",
        "name:ga": "Baile Átha an Rí",
        "network": "InterCity",
        "network:wikidata": "Q6044834",
        "operator": "Iarnród Éireann",
        "operator:en": "Irish Rail",
        "operator:ga": "Iarnród Éireann",
        "operator:wikidata": "Q73043",
        "platforms": "2",
        "public_transport": "station",
        "railway": "station",
        "railway:ref": "ATHRY",
        "train": "yes",
        "website": "https://www.irishrail.ie/travel-information/Athenry",
        "wheelchair": "yes",
        "wikidata": "Q967355",
        "wikipedia": "en:Athenry railway station"
      },
      "geometry": {
        "type": "Point",
        "coordinates": [
          -8.7485558,
          53.301501
        ]
      },
      "id": "node/6856262797"
    },
    {
      "type": "Feature",
      "properties": {
        "@id": "node/7176421920",
        "addr:city": "Dublin",
        "addr:street": "Westland Row",
        "alt_name": "Pearse Station",
        "level": "1",
        "name": "Dublin Pearse",
        "name:en": "Dublin Pearse",
        "name:ga": "Stáisiún na bPiarsach",
        "network": "InterCity;Dublin Commuter;DART",
        "old_name": "Dublin Westland Row",
        "operator": "Irish Rail",
        "phone": "+353 1 7033523",
        "public_transport": "station",
        "railway": "station",
        "railway:ref": "PERSE",
        "short_name": "Pearse",
        "train": "yes",
        "website": "https://www.irishrail.ie/en-ie/Station/dublin-pearse",
        "wheelchair": "yes",
        "wikidata": "Q2658249",
        "wikipedia": "en:Dublin Pearse railway station"
      },
      "geometry": {
        "type": "Point",
        "coordinates": [
          -6.2484634,
          53.3433347
        ]
      },
      "id": "node/7176421920"
    },
    {
      "type": "Feature",
      "properties": {
        "@id": "node/7176421927",
        "addr:city": "Greystones",
        "addr:street": "Church Road",
        "name": "Greystones",
        "name:en": "Greystones",
        "name:ga": "Na Clocha Liatha",
        "network": "InterCity;Dublin Commuter;DART",
        "operator": "Irish Rail",
        "phone": "+353 1 8286340",
        "public_transport": "station",
        "railway": "station",
        "railway:ref": "GSTNS",
        "train": "yes",
        "website": "https://www.irishrail.ie/en-ie/station/greystones",
        "wheelchair": "yes",
        "wikidata": "Q1991212",
        "wikipedia": "en:Greystones railway station"
      },
      "geometry": {
        "type": "Point",
        "coordinates": [
          -6.0609993,
          53.144033
        ]
      },
      "id": "node/7176421927"
    },
    {
      "type": "Feature",
      "properties": {
        "@id": "node/7184996489",
        "addr:city": "Dún Laoghaire",
        "addr:street": "Crofton Road",
        "alt_name": "Dun Laoghaire",
        "name": "Dún Laoghaire Mallin",
        "name:ga": "Stáisiún Dhún Laoghaire Í Mhealláin",
        "network": "InterCity;Dublin Commuter;DART",
        "note": "Since every other station named for an Easter Rising figure had the name by default, I've swapped DL Mallin to name and DL to short_name.",
        "old_name": "Kingstown",
        "operator": "Irish Rail",
        "public_transport": "station",
        "railway": "station",
        "railway:ref": "DLERY",
        "short_name": "Dún Laoghaire",
        "short_name:ga": "Stáisiún Dhún Laoghaire",
        "train": "yes",
        "uic_ref": "6000047",
        "website": "https://www.irishrail.ie/en-ie/station/dun-laoghaire-mallin",
        "wheelchair": "yes",
        "wikidata": "Q3969552",
        "wikipedia": "en:Dún Laoghaire railway station"
      },
      "geometry": {
        "type": "Point",
        "coordinates": [
          -6.1347451,
          53.2949953
        ]
      },
      "id": "node/7184996489"
    },
    {
      "type": "Feature",
      "properties": {
        "@id": "node/7198317688",
        "addr:city": "Kilcock",
        "addr:street": "Molly Ware Street",
        "layer": "1",
        "name": "Kilcock",
        "network": "InterCity;Dublin Commuter",
        "operator": "Irish Rail",
        "public_transport": "station",
        "railway": "station",
        "railway:ref": "KCOCK",
        "train": "yes",
        "website": "https://www.irishrail.ie/travel-information/kilcock",
        "wikidata": "Q3969863",
        "wikipedia": "en:Kilcock railway station"
      },
      "geometry": {
        "type": "Point",
        "coordinates": [
          -6.6688581,
          53.399043
        ]
      },
      "id": "node/7198317688"
    },
    {
      "type": "Feature",
      "properties": {
        "@id": "node/7198337980",
        "addr:postcode": "D01 V6V6",
        "addr:street": "Amiens Street",
        "loc_name": "Connolly Station",
        "name": "Dublin Connolly",
        "name:en": "Dublin Connolly",
        "name:ga": "Baile Átha Cliath Chonghaile",
        "network": "Enterprise;InterCity;Dublin Commuter;DART",
        "old_name": "Dublin Amiens Street",
        "operator": "Irish Rail",
        "phone": "+353-1-7032358",
        "public_transport": "station",
        "railway": "station",
        "railway:ref": "CNLLY",
        "railway:ref:Translink NI Railways": "DN",
        "ref": "100",
        "short_name": "Connolly",
        "start_date": "1844",
        "train": "yes",
        "website": "https://www.irishrail.ie/travel-information/dublin-connolly",
        "wheelchair": "limited",
        "wikidata": "Q2543742",
        "wikipedia": "en:Dublin Connolly railway station",
        "year_built": "1844"
      },
      "geometry": {
        "type": "Point",
        "coordinates": [
          -6.2471357,
          53.3527247
        ]
      },
      "id": "node/7198337980"
    },
    {
      "type": "Feature",
      "properties": {
        "@id": "node/7198349812",
        "addr:city": "Maynooth",
        "addr:street": "Straffan Road",
        "layer": "1",
        "name": "Maynooth",
        "network": "InterCity;Dublin Commuter",
        "operator": "Irish Rail",
        "public_transport": "station",
        "railway": "station",
        "railway:ref": "MYNTH",
        "train": "yes",
        "website": "https://www.irishrail.ie/travel-information/maynooth",
        "wikidata": "Q3970077",
        "wikipedia": "en:Maynooth railway station"
      },
      "geometry": {
        "type": "Point",
        "coordinates": [
          -6.5906355,
          53.3780554
        ]
      },
      "id": "node/7198349812"
    },
    {
      "type": "Feature",
      "properties": {
        "@id": "node/7198369363",
        "addr:city": "Edgeworthstown",
        "addr:street": "Station Road",
        "name": "Edgeworthstown",
        "network": "InterCity;Dublin Commuter",
        "old_name": "Mostrim",
        "operator": "Irish Rail",
        "phone": "+353 43 6671031",
        "public_transport": "station",
        "railway": "station",
        "railway:ref": "ETOWN",
        "railway:ref:DB": "ZIET",
        "train": "yes",
        "website": "https://www.irishrail.ie/travel-information/edgeworthstown",
        "wheelchair": "limited",
        "wikidata": "Q3969559",
        "wikipedia": "en:Edgeworthstown railway station"
      },
      "geometry": {
        "type": "Point",
        "coordinates": [
          -7.6031144,
          53.6887624
        ]
      },
      "id": "node/7198369363"
    },
    {
      "type": "Feature",
      "properties": {
        "@id": "node/7198398740",
        "addr:city": "Enfield",
        "addr:street": "Main Street",
        "name": "Enfield",
        "network": "InterCity;Dublin Commuter",
        "operator": "Irish Rail",
        "public_transport": "station",
        "railway": "station",
        "railway:ref": "ENFLD",
        "train": "yes",
        "website": "https://irishrail.ie",
        "wikidata": "Q3969562",
        "wikipedia": "en:Enfield (Ireland) railway station"
      },
      "geometry": {
        "type": "Point",
        "coordinates": [
          -6.8341687,
          53.4161821
        ]
      },
      "id": "node/7198398740"
    },
    {
      "type": "Feature",
      "properties": {
        "@id": "node/7198405505",
        "addr:city": "Mullingar",
        "addr:street": "Clonmore Road",
        "name": "Mullingar",
        "name:en": "Mullingar",
        "name:ga": "An Muileann gCearr",
        "network": "InterCity",
        "network:wikidata": "Q6044834",
        "operator": "Iarnród Éireann",
        "operator:en": "Irish Rail",
        "operator:ga": "Iarnród Éireann",
        "operator:wikidata": "Q73043",
        "platforms": "3",
        "public_transport": "station",
        "railway": "station",
        "railway:ref": "MLGAR",
        "start_date": "1848",
        "train": "yes",
        "website": "https://www.irishrail.ie/travel-information/mullingar",
        "wheelchair": "limited",
        "wikidata": "Q3970250",
        "wikipedia": "en:Mullingar railway station"
      },
      "geometry": {
        "type": "Point",
        "coordinates": [
          -7.345688,
          53.5229058
        ]
      },
      "id": "node/7198405505"
    },
    {
      "type": "Feature",
      "properties": {
        "@id": "node/8403563822",
        "addr:city": "Athy",
        "addr:street": "Church Road",
        "name": "Athy",
        "name:ga": "Baile Átha Í",
        "network": "InterCity",
        "operator": "Irish Rail",
        "public_transport": "station",
        "railway": "station",
        "railway:ref": "ATHY",
        "train": "yes",
        "website": "https://www.irishrail.ie/travel-information/Athy",
        "wheelchair": "yes",
        "wikidata": "Q3968931",
        "wikipedia": "en:Athy railway station"
      },
      "geometry": {
        "type": "Point",
        "coordinates": [
          -6.9764756,
          52.9922877
        ]
      },
      "id": "node/8403563822"
    },
    {
      "type": "Feature",
      "properties": {
        "@id": "node/8403567017",
        "addr:city": "Bagenalstown",
        "addr:county": "Carlow",
        "addr:street": "Station Road",
        "name": "Muine Bheag",
        "name:en": "Bagenalstown",
        "name:ga": "Muine Bheag",
        "network": "InterCity",
        "operator": "Irish Rail",
        "phone": "+353 59 972 1302",
        "public_transport": "station",
        "railway": "station",
        "railway:ref": "MNEBG",
        "train": "yes",
        "website": "https://www.irishrail.ie/travel-information/muine-bheag-bagenalstown",
        "wheelchair": "limited",
        "wikidata": "Q13583310",
        "wikipedia": "en:Muine Bheag halt"
      },
      "geometry": {
        "type": "Point",
        "coordinates": [
          -6.9525956,
          52.6989293
        ]
      },
      "id": "node/8403567017"
    },
    {
      "type": "Feature",
      "properties": {
        "@id": "node/8436515317",
        "addr:city": "Clara",
        "addr:county": "Offaly",
        "addr:street": "Station Road",
        "name": "Clara",
        "name:en": "Clara",
        "name:ga": "Clóirtheach",
        "network": "InterCity",
        "network:wikidata": "Q6044834",
        "operator": "Iarnród Éireann",
        "operator:en": "Irish Rail",
        "operator:ga": "Iarnród Éireann",
        "operator:wikidata": "Q73043",
        "platforms": "1",
        "public_transport": "station",
        "railway": "station",
        "railway:ref": "CLARA",
        "train": "yes",
        "wikidata": "Q3969435",
        "wikipedia": "en:Clara railway station"
      },
      "geometry": {
        "type": "Point",
        "coordinates": [
          -7.616368,
          53.3398163
        ]
      },
      "id": "node/8436515317"
    },
    {
      "type": "Feature",
      "properties": {
        "@id": "node/8436522718",
        "addr:city": "Tullamore",
        "name": "Tullamore",
        "name:en": "Tullamore",
        "name:ga": "Tulach Mhór",
        "network": "InterCity",
        "network:wikidata": "Q6044834",
        "operator": "Iarnród Éireann",
        "operator:en": "Irish Rail",
        "operator:ga": "Iarnród Éireann",
        "operator:wikidata": "Q73043",
        "platforms": "2",
        "public_transport": "station",
        "railway": "station",
        "railway:ref": "TMORE",
        "train": "yes",
        "wikidata": "Q3971209",
        "wikipedia": "en:Tullamore railway station"
      },
      "geometry": {
        "type": "Point",
        "coordinates": [
          -7.4999253,
          53.2704078
        ]
      },
      "id": "node/8436522718"
    },
    {
      "type": "Feature",
      "properties": {
        "@id": "node/9770125621",
        "addr:city": "Oranmore",
        "addr:country": "IE",
        "addr:county": "Galway",
        "addr:street": "Gurraun South",
        "name": "Oranmore",
        "name:en": "Oranmore",
        "name:ga": "Órán Mór",
        "network": "InterCity",
        "network:wikidata": "Q6044834",
        "operator": "Iarnród Éireann",
        "operator:en": "Irish Rail",
        "operator:ga": "Iarnród Éireann",
        "operator:wikidata": "Q73043",
        "platforms": "1",
        "public_transport": "station",
        "railway": "station",
        "railway:ref": "ORNMR",
        "train": "yes",
        "website": "https://www.irishrail.ie/en-ie/train-timetables/live-departure-train-times?key=Oranmore",
        "wheelchair": "yes",
        "wikidata": "Q7099891",
        "wikipedia": "en:Oranmore railway station"
      },
      "geometry": {
        "type": "Point",
        "coordinates": [
          -8.9472704,
          53.2754881
        ]
      },
      "id": "node/9770125621"
    },
    {
      "type": "Feature",
      "properties": {
        "@id": "node/9884548669",
        "addr:city": "Sligo",
        "addr:street": "Lord Edward Street",
        "name": "Sligo Mac Diarmada",
        "network": "InterCity",
        "network:wikidata": "Q6044834",
        "operator": "Iarnród Éireann",
        "operator:en": "Irish Rail",
        "operator:ga": "Iarnród Éireann",
        "operator:wikidata": "Q73043",
        "public_transport": "station",
        "railway": "station",
        "railway:ref": "SLIGO",
        "train": "yes",
        "website": "https://www.irishrail.ie/travel-information/sligo-macdiarmada",
        "wikidata": "Q2059721",
        "wikipedia": "en:Sligo Mac Diarmada railway station"
      },
      "geometry": {
        "type": "Point",
        "coordinates": [
          -8.4819869,
          54.2720419
        ]
      },
      "id": "node/9884548669"
    },
    {
      "type": "Feature",
      "properties": {
        "@id": "node/9909469455",
        "contact:website": "https://www.irishrail.ie/en-ie/station/portarlington",
        "name": "Portarlington",
        "name:en": "Portarlington",
        "name:ga": "Cúil an tSúdaire",
        "network": "InterCity",
        "network:wikidata": "Q6044834",
        "operator": "Iarnród Éireann",
        "operator:en": "Irish Rail",
        "operator:ga": "Iarnród Éireann",
        "operator:wikidata": "Q73043",
        "platforms": "2",
        "public_transport": "station",
        "railway": "station",
        "railway:ref": "PTRTN",
        "train": "yes",
        "wikidata": "Q3970565",
        "wikipedia": "en:Portarlington railway station"
      },
      "geometry": {
        "type": "Point",
        "coordinates": [
          -7.1815122,
          53.1461327
        ]
      },
      "id": "node/9909469455"
    },
    {
      "type": "Feature",
      "properties": {
        "@id": "node/10800545157",
        "addr:city": "Dublin",
        "addr:street": "Drumcondra Road Lower",
        "area": "yes",
        "name": "Drumcondra",
        "name:ga": "Droim Conrach",
        "network": "InterCity;Dublin Commuter",
        "operator": "Irish Rail",
        "phone": "+353-1-8305311",
        "public_transport": "station",
        "railway": "station",
        "railway:ref": "DCDRA",
        "train": "yes",
        "website": "https://www.irishrail.ie/travel-information/drumcondra",
        "wheelchair": "yes",
        "wikidata": "Q634947",
        "wikipedia": "en:Drumcondra railway station"
      },
      "geometry": {
        "type": "Point",
        "coordinates": [
          -6.2587453,
          53.363086
        ]
      },
      "id": "node/10800545157"
    },
    {
      "type": "Feature",
      "properties": {
        "@id": "node/10803352579",
        "addr:city": "Dublin",
        "addr:street": "George's Quay",
        "name": "Tara Street",
        "name:ga": "Sráid na Teamhrach",
        "network": "InterCity;Dublin Commuter;DART",
        "operator": "Irish Rail",
        "platforms": "2",
        "public_transport": "station",
        "railway": "station",
        "railway:ref": "TARA",
        "train": "yes",
        "wheelchair": "yes",
        "wikidata": "Q2004945",
        "wikipedia": "en:Tara Street railway station"
      },
      "geometry": {
        "type": "Point",
        "coordinates": [
          -6.2543071,
          53.3471286
        ]
      },
      "id": "node/10803352579"
    }
  ]
}